TRANSPORTER-15 DK       
1 66771U 25276DK  25355.23021481  .00008849  00000+0  43271-3 0  9998
2 66771  97.4452  66.8906 0002910 119.6420 240.5105 15.18446063  3413
TRANSPORTER-15 DL       
1 66772U 25276DL  25355.16223574  .00008007  00000+0  38961-3 0  9994
2 66772  97.4446  66.8260 0002944 107.4330 252.7227 15.18649435  3409
TRANSPORTER-15 DM       
1 66773U 25276DM  25355.22914123  .00012326  00000+0  60012-3 0  9990
2 66773  97.4440  66.8891 0003287 106.7993 253.3602 15.18507843  3413
TRANSPORTER-15 DN       
1 66774U 25276DN  25355.22870504  .00009016  00000+0  43941-3 0  9999
2 66774  97.4426  66.8852 0002990 104.3256 255.8310 15.18558144  3414
TRANSPORTER-15 DP       
1 66775U 25276DP  25355.16211558  .00014509  00000+0  70313-3 0  9997
2 66775  97.4338  66.8018 0003304  77.6101 282.5503 15.18630257  3408
TRANSPORTER-15 DQ       
1 66776U 25276DQ  25355.16180358  .00007293  00000+0  35510-3 0  9993
2 66776  97.4386  66.8120 0002852  87.8499 272.3062 15.18658115  3406
TRANSPORTER-15 DR       
1 66777U 25276DR  25355.15974977  .00009093  00000+0  43914-3 0  9998
2 66777  97.4476  66.8386 0003377 116.5410 243.6171 15.18872016  3407
STARLINK-35867          
1 66791U 25278A   25355.25001157 -.01998604  00000+0 -28252-1 0  9992
2 66791  42.9993 200.5338 0001665 271.1930 178.9510 15.59210330  4328
STARLINK-35990          
1 66792U 25278B   25355.25001157 -.01993302  00000+0 -28168-1 0  9999
2 66792  42.9995 200.5294 0001716 273.8211 178.2400 15.59208024  4328
STARLINK-36051          
1 66793U 25278C   25355.25001157 -.01996012  00000+0 -28211-1 0  9990
2 66793  42.9994 200.5195 0001659 272.5139 183.3800 15.59209841  4227
STARLINK-36062          
1 66794U 25278D   25355.25001157 -.01997804  00000+0 -28240-1 0  9993
2 66794  42.9994 200.5240 0001613 273.0707 180.9085 15.59209507  4324
STARLINK-36047          
1 66795U 25278E   25355.25001157 -.02005214  00000+0 -28355-1 0  9997
2 66795  42.9990 200.5147 0001599 270.4829 187.3272 15.59214635  4222
