CCSDS_OMM_VERS = 2.0
CREATION_DATE  = 
ORIGINATOR     = 

OBJECT_NAME    = TRANSPORTER-15 DK
OBJECT_ID      = 2025-276DK
CENTER_NAME    = EARTH
REF_FRAME      = TEME
TIME_SYSTEM    = UTC
MEAN_ELEMENT_THEORY = SGP/SGP4

EPOCH          = 2025-12-21T05:31:30.559584
MEAN_MOTION    = 15.18446063
ECCENTRICITY   = .00029107
INCLINATION    = 97.4452
RA_OF_ASC_NODE = 66.8906
ARG_OF_PERICENTER = 119.6420
MEAN_ANOMALY   = 240.5105

EPHEMERIS_TYPE = 0
CLASSIFICATION_TYPE = U
NORAD_CAT_ID   = 66771
ELEMENT_SET_NO = 999
REV_AT_EPOCH   = 341
BSTAR          = .43271431E-3
MEAN_MOTION_DOT = .8849E-4
MEAN_MOTION_DDOT = 0

CCSDS_OMM_VERS = 2.0
CREATION_DATE  = 
ORIGINATOR     = 

OBJECT_NAME    = TRANSPORTER-15 DL
OBJECT_ID      = 2025-276DL
CENTER_NAME    = EARTH
REF_FRAME      = TEME
TIME_SYSTEM    = UTC
MEAN_ELEMENT_THEORY = SGP/SGP4

EPOCH          = 2025-12-21T03:53:37.167936
MEAN_MOTION    = 15.18649435
ECCENTRICITY   = .00029448
INCLINATION    = 97.4446
RA_OF_ASC_NODE = 66.8260
ARG_OF_PERICENTER = 107.4330
MEAN_ANOMALY   = 252.7227

EPHEMERIS_TYPE = 0
CLASSIFICATION_TYPE = U
NORAD_CAT_ID   = 66772
ELEMENT_SET_NO = 999
REV_AT_EPOCH   = 340
BSTAR          = .38960806E-3
MEAN_MOTION_DOT = .8007E-4
MEAN_MOTION_DDOT = 0

CCSDS_OMM_VERS = 2.0
CREATION_DATE  = 
ORIGINATOR     = 

OBJECT_NAME    = TRANSPORTER-15 DM
OBJECT_ID      = 2025-276DM
CENTER_NAME    = EARTH
REF_FRAME      = TEME
TIME_SYSTEM    = UTC
MEAN_ELEMENT_THEORY = SGP/SGP4

EPOCH          = 2025-12-21T05:29:57.802272
MEAN_MOTION    = 15.18507843
ECCENTRICITY   = .00032873
INCLINATION    = 97.4440
RA_OF_ASC_NODE = 66.8891
ARG_OF_PERICENTER = 106.7993
MEAN_ANOMALY   = 253.3602

EPHEMERIS_TYPE = 0
CLASSIFICATION_TYPE = U
NORAD_CAT_ID   = 66773
ELEMENT_SET_NO = 999
REV_AT_EPOCH   = 341
BSTAR          = .60011921E-3
MEAN_MOTION_DOT = .12326E-3
MEAN_MOTION_DDOT = 0

CCSDS_OMM_VERS = 2.0
CREATION_DATE  = 
ORIGINATOR     = 

OBJECT_NAME    = TRANSPORTER-15 DN
OBJECT_ID      = 2025-276DN
CENTER_NAME    = EARTH
REF_FRAME      = TEME
TIME_SYSTEM    = UTC
MEAN_ELEMENT_THEORY = SGP/SGP4

EPOCH          = 2025-12-21T05:29:20.115456
MEAN_MOTION    = 15.18558144
ECCENTRICITY   = .00029908
INCLINATION    = 97.4426
RA_OF_ASC_NODE = 66.8852
ARG_OF_PERICENTER = 104.3256
MEAN_ANOMALY   = 255.8310

EPHEMERIS_TYPE = 0
CLASSIFICATION_TYPE = U
NORAD_CAT_ID   = 66774
ELEMENT_SET_NO = 999
REV_AT_EPOCH   = 341
BSTAR          = .43940943E-3
MEAN_MOTION_DOT = .9016E-4
MEAN_MOTION_DDOT = 0

CCSDS_OMM_VERS = 2.0
CREATION_DATE  = 
ORIGINATOR     = 

OBJECT_NAME    = TRANSPORTER-15 DP
OBJECT_ID      = 2025-276DP
CENTER_NAME    = EARTH
REF_FRAME      = TEME
TIME_SYSTEM    = UTC
MEAN_ELEMENT_THEORY = SGP/SGP4

EPOCH          = 2025-12-21T03:53:26.786112
MEAN_MOTION    = 15.18630257
ECCENTRICITY   = .00033043
INCLINATION    = 97.4338
RA_OF_ASC_NODE = 66.8018
ARG_OF_PERICENTER = 77.6101
MEAN_ANOMALY   = 282.5503

EPHEMERIS_TYPE = 0
CLASSIFICATION_TYPE = U
NORAD_CAT_ID   = 66775
ELEMENT_SET_NO = 999
REV_AT_EPOCH   = 340
BSTAR          = .70312811E-3
MEAN_MOTION_DOT = .14509E-3
MEAN_MOTION_DDOT = 0

CCSDS_OMM_VERS = 2.0
CREATION_DATE  = 
ORIGINATOR     = 

OBJECT_NAME    = TRANSPORTER-15 DQ
OBJECT_ID      = 2025-276DQ
CENTER_NAME    = EARTH
REF_FRAME      = TEME
TIME_SYSTEM    = UTC
MEAN_ELEMENT_THEORY = SGP/SGP4

EPOCH          = 2025-12-21T03:52:59.829312
MEAN_MOTION    = 15.18658115
ECCENTRICITY   = .00028528
INCLINATION    = 97.4386
RA_OF_ASC_NODE = 66.8120
ARG_OF_PERICENTER = 87.8499
MEAN_ANOMALY   = 272.3062

EPHEMERIS_TYPE = 0
CLASSIFICATION_TYPE = U
NORAD_CAT_ID   = 66776
ELEMENT_SET_NO = 999
REV_AT_EPOCH   = 340
BSTAR          = .35509935E-3
MEAN_MOTION_DOT = .7293E-4
MEAN_MOTION_DDOT = 0

CCSDS_OMM_VERS = 2.0
CREATION_DATE  = 
ORIGINATOR     = 

OBJECT_NAME    = TRANSPORTER-15 DR
OBJECT_ID      = 2025-276DR
CENTER_NAME    = EARTH
REF_FRAME      = TEME
TIME_SYSTEM    = UTC
MEAN_ELEMENT_THEORY = SGP/SGP4

EPOCH          = 2025-12-21T03:50:02.380128
MEAN_MOTION    = 15.18872016
ECCENTRICITY   = .00033776
INCLINATION    = 97.4476
RA_OF_ASC_NODE = 66.8386
ARG_OF_PERICENTER = 116.5410
MEAN_ANOMALY   = 243.6171

EPHEMERIS_TYPE = 0
CLASSIFICATION_TYPE = U
NORAD_CAT_ID   = 66777
ELEMENT_SET_NO = 999
REV_AT_EPOCH   = 340
BSTAR          = .43914256E-3
MEAN_MOTION_DOT = .9093E-4
MEAN_MOTION_DDOT = 0

CCSDS_OMM_VERS = 2.0
CREATION_DATE  = 
ORIGINATOR     = 

OBJECT_NAME    = STARLINK-35867
OBJECT_ID      = 2025-278A
CENTER_NAME    = EARTH
REF_FRAME      = TEME
TIME_SYSTEM    = UTC
MEAN_ELEMENT_THEORY = SGP/SGP4

EPOCH          = 2025-12-21T06:00:00.999648
MEAN_MOTION    = 15.59210330
ECCENTRICITY   = .00016653
INCLINATION    = 42.9993
RA_OF_ASC_NODE = 200.5338
ARG_OF_PERICENTER = 271.1930
MEAN_ANOMALY   = 178.9510

EPHEMERIS_TYPE = 0
CLASSIFICATION_TYPE = U
NORAD_CAT_ID   = 66791
ELEMENT_SET_NO = 999
REV_AT_EPOCH   = 432
BSTAR          = -.28251825E-1
MEAN_MOTION_DOT = -.1998604E-1
MEAN_MOTION_DDOT = 0

CCSDS_OMM_VERS = 2.0
CREATION_DATE  = 
ORIGINATOR     = 

OBJECT_NAME    = STARLINK-35990
OBJECT_ID      = 2025-278B
CENTER_NAME    = EARTH
REF_FRAME      = TEME
TIME_SYSTEM    = UTC
MEAN_ELEMENT_THEORY = SGP/SGP4

EPOCH          = 2025-12-21T06:00:00.999648
MEAN_MOTION    = 15.59208024
ECCENTRICITY   = .00017168
INCLINATION    = 42.9995
RA_OF_ASC_NODE = 200.5294
ARG_OF_PERICENTER = 273.8211
MEAN_ANOMALY   = 178.2400

EPHEMERIS_TYPE = 0
CLASSIFICATION_TYPE = U
NORAD_CAT_ID   = 66792
ELEMENT_SET_NO = 999
REV_AT_EPOCH   = 432
BSTAR          = -.28168142E-1
MEAN_MOTION_DOT = -.1993302E-1
MEAN_MOTION_DDOT = 0

CCSDS_OMM_VERS = 2.0
CREATION_DATE  = 
ORIGINATOR     = 

OBJECT_NAME    = STARLINK-36051
OBJECT_ID      = 2025-278C
CENTER_NAME    = EARTH
REF_FRAME      = TEME
TIME_SYSTEM    = UTC
MEAN_ELEMENT_THEORY = SGP/SGP4

EPOCH          = 2025-12-21T06:00:00.999648
MEAN_MOTION    = 15.59209841
ECCENTRICITY   = .00016591
INCLINATION    = 42.9994
RA_OF_ASC_NODE = 200.5195
ARG_OF_PERICENTER = 272.5139
MEAN_ANOMALY   = 183.3800

EPHEMERIS_TYPE = 0
CLASSIFICATION_TYPE = U
NORAD_CAT_ID   = 66793
ELEMENT_SET_NO = 999
REV_AT_EPOCH   = 422
BSTAR          = -.28210593E-1
MEAN_MOTION_DOT = -.1996012E-1
MEAN_MOTION_DDOT = 0

CCSDS_OMM_VERS = 2.0
CREATION_DATE  = 
ORIGINATOR     = 

OBJECT_NAME    = STARLINK-36062
OBJECT_ID      = 2025-278D
CENTER_NAME    = EARTH
REF_FRAME      = TEME
TIME_SYSTEM    = UTC
MEAN_ELEMENT_THEORY = SGP/SGP4

EPOCH          = 2025-12-21T06:00:00.999648
MEAN_MOTION    = 15.59209507
ECCENTRICITY   = .00016133
INCLINATION    = 42.9994
RA_OF_ASC_NODE = 200.5240
ARG_OF_PERICENTER = 273.0707
MEAN_ANOMALY   = 180.9085

EPHEMERIS_TYPE = 0
CLASSIFICATION_TYPE = U
NORAD_CAT_ID   = 66794
ELEMENT_SET_NO = 999
REV_AT_EPOCH   = 432
BSTAR          = -.28240429E-1
MEAN_MOTION_DOT = -.1997804E-1
MEAN_MOTION_DDOT = 0

CCSDS_OMM_VERS = 2.0
CREATION_DATE  = 
ORIGINATOR     = 

OBJECT_NAME    = STARLINK-36047
OBJECT_ID      = 2025-278E
CENTER_NAME    = EARTH
REF_FRAME      = TEME
TIME_SYSTEM    = UTC
MEAN_ELEMENT_THEORY = SGP/SGP4

EPOCH          = 2025-12-21T06:00:00.999648
MEAN_MOTION    = 15.59214635
ECCENTRICITY   = .00015993
INCLINATION    = 42.9990
RA_OF_ASC_NODE = 200.5147
ARG_OF_PERICENTER = 270.4829
MEAN_ANOMALY   = 187.3272

EPHEMERIS_TYPE = 0
CLASSIFICATION_TYPE = U
NORAD_CAT_ID   = 66795
ELEMENT_SET_NO = 999
REV_AT_EPOCH   = 422
BSTAR          = -.28354697E-1
MEAN_MOTION_DOT = -.2005214E-1
MEAN_MOTION_DDOT = 0

